     2              NAVIGATION DATA                         RINEX VERSION / TYPE
CCRINEXN V1.6.0 UX  CDDIS               11-MAY-16 15:33     PGM / RUN BY / DATE 
IGS BROADCAST EPHEMERIS FILE                                COMMENT             
    0.1304D-07  0.2235D-07 -0.5960D-07 -0.1192D-06          ION ALPHA           
    0.1004D+06  0.1147D+06 -0.1311D+06 -0.4588D+06          ION BETA            
   -0.931322574615D-09-0.710542735760D-14   319488     1896 DELTA-UTC: A0,A1,T,W
    17                                                      LEAP SECONDS        
                                                            END OF HEADER       
15 16  5 10  2  0  0.0-0.310191418976D-03-0.170530256582D-11 0.000000000000D+00
    0.770000000000D+02 0.139062500000D+02 0.496770692493D-08-0.255511331310D+01
    0.668689608574D-06 0.810616149101D-02 0.102650374174D-04 0.515358832169D+04
    0.180000000000D+06 0.298023223877D-07 0.120709232824D+00-0.968575477600D-07
    0.931323892167D+00 0.166031250000D+03 0.483332139306D+00-0.808605110220D-08
   -0.530022077547D-09 0.100000000000D+01 0.189600000000D+04 0.000000000000D+00
    0.200000000000D+01 0.000000000000D+00-0.107102096081D-07 0.770000000000D+02
    0.172818000000D+06 0.400000000000D+01 0.000000000000D+00 0.000000000000D+00
16 16  5 10  2  0  0.0-0.186911784113D-04 0.261479726760D-11 0.000000000000D+00
    0.680000000000D+02-0.186875000000D+02 0.411267130927D-08-0.841091412250D+00
   -0.827014446259D-06 0.876079767477D-02 0.154227018356D-05 0.515375190544D+04
    0.180000000000D+06 0.171363353729D-06 0.234577583925D+01 0.111758708954D-07
    0.990770659655D+00 0.358312500000D+03 0.376225124635D+00-0.819891294621D-08
    0.104290058385D-09 0.000000000000D+00 0.189600000000D+04 0.000000000000D+00
    0.200000000000D+01 0.000000000000D+00-0.107102096081D-07 0.680000000000D+02
    0.172800000000D+06 0.400000000000D+01 0.000000000000D+00 0.000000000000D+00
17 16  5 10  2  0  0.0-0.203635077924D-03-0.113686837722D-12 0.000000000000D+00
    0.750000000000D+02-0.104031250000D+03 0.416017328792D-08-0.173062807938D+01
   -0.528991222382D-05 0.109597225674D-01 0.942125916481D-05 0.515368873406D+04
    0.180000000000D+06 0.167638063431D-06-0.291599165759D+01 0.121071934700D-06
    0.976541023733D+00 0.202187500000D+03-0.192782287674D+01-0.770496379981D-08
    0.153577825704D-10 0.100000000000D+01 0.189600000000D+04 0.000000000000D+00
    0.200000000000D+01 0.000000000000D+00-0.107102096081D-07 0.750000000000D+02
    0.172818000000D+06 0.400000000000D+01 0.000000000000D+00 0.000000000000D+00
18 16  5 10  2  0  0.0 0.513853505254D-03 0.420641299570D-11 0.000000000000D+00
    0.115000000000D+03 0.321875000000D+01 0.595703397721D-08-0.172940832754D+00
    0.305473804474D-06 0.171381112887D-01 0.547431409359D-05 0.515366984177D+04
    0.180000000000D+06-0.154599547386D-06-0.898905155008D+00 0.176951289177D-06
    0.924794006640D+00 0.256562500000D+03-0.188849789936D+01-0.901537511311D-08
   -0.111433209882D-09 0.100000000000D+01 0.189600000000D+04 0.000000000000D+00
    0.200000000000D+01 0.000000000000D+00-0.121071934700D-07 0.115000000000D+03
    0.172800000000D+06 0.000000000000D+00 0.000000000000D+00 0.000000000000D+00
19 16  5 10  2  0  0.0-0.525703188032D-03 0.000000000000D+00 0.000000000000D+00
    0.480000000000D+02-0.111093750000D+03 0.421910431406D-08 0.140287466649D+01
   -0.566430389881D-05 0.107963226037D-01 0.101625919342D-04 0.515362182617D+04
    0.180000000000D+06-0.173225998878D-06-0.286719740313D+01 0.189989805222D-06
    0.973628118308D+00 0.194312500000D+03 0.758462362739D+00-0.798283251702D-08
   -0.102504269714D-09 0.100000000000D+01 0.189600000000D+04 0.000000000000D+00
    0.200000000000D+01 0.000000000000D+00-0.149011611938D-07 0.480000000000D+02
    0.172818000000D+06 0.400000000000D+01 0.000000000000D+00 0.000000000000D+00
20 16  5 10  2  0  0.0 0.411232467741D-03 0.238742359215D-11 0.000000000000D+00
    0.620000000000D+02 0.343750000000D+01 0.574309622081D-08-0.251631646670D+01
    0.234693288803D-06 0.459991721436D-02 0.534765422344D-05 0.515372265625D+04
    0.180000000000D+06 0.633299350738D-07-0.950763693273D+00 0.745058059692D-08
    0.926023622932D+00 0.257875000000D+03 0.136430686479D+01-0.853071213669D-08
   -0.603596547744D-10 0.100000000000D+01 0.189600000000D+04 0.000000000000D+00
    0.200000000000D+01 0.000000000000D+00-0.838190317154D-08 0.620000000000D+02
    0.172800000000D+06 0.000000000000D+00 0.000000000000D+00 0.000000000000D+00
21 16  5 10  2  0  0.0-0.522110611200D-03-0.125055521494D-11 0.000000000000D+00
    0.440000000000D+02-0.156875000000D+02 0.533843665303D-08 0.705551481668D+00
   -0.637024641037D-06 0.233541800408D-01 0.107977539301D-04 0.515362105560D+04
    0.180000000000D+06-0.311061739922D-06-0.194136522351D+01 0.502914190292D-07
    0.935985988259D+00 0.168906250000D+03-0.179333497736D+01-0.870571977103D-08
    0.362515100209D-09 0.000000000000D+00 0.189600000000D+04 0.000000000000D+00
    0.200000000000D+01 0.000000000000D+00-0.102445483208D-07 0.440000000000D+02
    0.172800000000D+06 0.400000000000D+01 0.000000000000D+00 0.000000000000D+00
22 16  5 10  2  0  0.0 0.345726963133D-03-0.795807864051D-11 0.000000000000D+00
    0.690000000000D+02 0.156250000000D+01 0.576631161860D-08-0.213240175164D+01
    0.502914190292D-07 0.766974489670D-02 0.492855906486D-05 0.515382240295D+04
    0.180000000000D+06 0.875443220139D-07-0.898222495989D+00 0.558793544769D-07
    0.922686343990D+00 0.260781250000D+03-0.192681973187D+01-0.855428489173D-08
   -0.507163982558D-10 0.000000000000D+00 0.189600000000D+04 0.000000000000D+00
    0.200000000000D+01 0.000000000000D+00-0.176951289177D-07 0.690000000000D+02
    0.177030000000D+06 0.400000000000D+01 0.000000000000D+00 0.000000000000D+00
23 16  5 10  2  0  0.0-0.173085834831D-03-0.170530256582D-11 0.000000000000D+00
    0.450000000000D+02 0.132812500000D+02 0.457090468224D-08-0.303241843034D+01
    0.573694705963D-06 0.108672403731D-01 0.106971710920D-04 0.515368689346D+04
    0.180000000000D+06-0.800937414169D-07 0.178214495898D+00-0.104308128357D-06
    0.946542826440D+00 0.164625000000D+03-0.258388250707D+01-0.785711299458D-08
   -0.492877673191D-09 0.000000000000D+00 0.189600000000D+04 0.000000000000D+00
    0.200000000000D+01 0.000000000000D+00-0.200234353542D-07 0.450000000000D+02
    0.172800000000D+06 0.400000000000D+01 0.000000000000D+00 0.000000000000D+00
24 16  5 10  2  0  0.0-0.168010592461D-04-0.568434188608D-12 0.000000000000D+00
    0.620000000000D+02 0.135250000000D+03 0.448840124564D-08 0.265508735134D+01
    0.702962279320D-05 0.440139358398D-02 0.802986323833D-05 0.515362821770D+04
    0.180000000000D+06-0.186264514923D-07 0.120386142831D+01-0.540167093277D-07
    0.949586633775D+00 0.217437500000D+03 0.418713530699D+00-0.815283959849D-08
    0.262153776900D-09 0.100000000000D+01 0.189600000000D+04 0.000000000000D+00
    0.200000000000D+01 0.000000000000D+00 0.232830643654D-08 0.620000000000D+02
    0.172818000000D+06 0.400000000000D+01 0.000000000000D+00 0.000000000000D+00
25 16  5 10  2  0  0.0-0.168491620570D-03-0.704858393874D-11 0.000000000000D+00
    0.450000000000D+02-0.415625000000D+01 0.447447209401D-08 0.656586501738D+00
   -0.445172190666D-06 0.558888085652D-02 0.148080289364D-05 0.515375543213D+04
    0.180000000000D+06-0.670552253723D-07 0.227628077024D+01 0.502914190292D-07
    0.978455806486D+00 0.361750000000D+03 0.762519237918D+00-0.845428072616D-08
    0.500020827874D-10 0.100000000000D+01 0.189600000000D+04 0.000000000000D+00
    0.200000000000D+01 0.000000000000D+00 0.558793544769D-08 0.450000000000D+02
    0.174792000000D+06 0.400000000000D+01 0.000000000000D+00 0.000000000000D+00
26 16  5 10  2  0  0.0-0.358928460628D-03-0.126192389871D-10 0.000000000000D+00
    0.520000000000D+02-0.512500000000D+01 0.479198531971D-08-0.131102758145D+00
   -0.139698386192D-06 0.102144188713D-02 0.142864882946D-05 0.515375119591D+04
    0.180000000000D+06-0.558793544769D-08 0.226760965980D+01 0.186264514923D-07
    0.960431141629D+00 0.350000000000D+03 0.156147879089D+00-0.852071206472D-08
    0.108575951196D-09 0.000000000000D+00 0.189600000000D+04 0.000000000000D+00
    0.200000000000D+01 0.000000000000D+00 0.698491930962D-08 0.520000000000D+02
    0.172800000000D+06 0.400000000000D+01 0.000000000000D+00 0.000000000000D+00
27 16  5 10  2  0  0.0 0.908388756216D-04 0.397903932026D-11 0.000000000000D+00
    0.390000000000D+02-0.119812500000D+03 0.427624955153D-08-0.170899202277D+01
   -0.640563666821D-05 0.364062876906D-02 0.808015465736D-05 0.515364258385D+04
    0.180000000000D+06 0.353902578354D-07-0.296576345001D+01-0.819563865662D-07
    0.971492003364D+00 0.229031250000D+03 0.262154741329D+00-0.792175854447D-08
    0.607168148133D-11 0.000000000000D+00 0.189600000000D+04 0.000000000000D+00
    0.200000000000D+01 0.000000000000D+00 0.139698386192D-08 0.390000000000D+02
    0.172800000000D+06 0.400000000000D+01 0.000000000000D+00 0.000000000000D+00
28 16  5 10  2  0  0.0 0.521912705153D-03 0.261479726760D-11 0.000000000000D+00
    0.620000000000D+02-0.355937500000D+02 0.428017828661D-08-0.946016235911D+00
   -0.146031379700D-05 0.197512231534D-01 0.252202153206D-05 0.515362420464D+04
    0.180000000000D+06-0.258907675743D-06 0.235074658326D+01 0.212341547012D-06
    0.989473596987D+00 0.352062500000D+03-0.161736749876D+01-0.845642367256D-08
    0.864321716755D-10 0.100000000000D+01 0.189600000000D+04 0.000000000000D+00
    0.200000000000D+01 0.000000000000D+00-0.111758708954D-07 0.620000000000D+02
    0.172818000000D+06 0.400000000000D+01 0.000000000000D+00 0.000000000000D+00
